ONEWEB-0512             
1 54130U 22138T   25285.46322374  .00000051  00000+0  94962-4 0  9991
2 54130  87.9258 354.2607 0001586 109.0011 251.1293 13.19724121144130
ONEWEB-0513             
1 54131U 22138U   25285.95091916 -.00000046  00000+0 -14606-3 0  9993
2 54131  87.9280 354.1245 0001262 103.6504 256.4770 13.20316376144095
ONEWEB-0514             
1 54132U 22138V   25285.93392272 -.00000025  00000+0 -95228-4 0  9998
2 54132  87.9280 354.1462 0001888  95.7602 264.3746 13.19726872144210
ONEWEB-0515             
1 54133U 22138W   25285.46991187 -.00000040  00000+0 -13063-3 0  9990
2 54133  87.9224 323.8209 0003194 100.0667 260.0827 13.20768422146601
ONEWEB-0516             
1 54134U 22138X   25285.90865165  .00000098  00000+0  21298-3 0  9996
2 54134  87.9260 354.1775 0001882 104.8954 255.2388 13.19727608144212
ONEWEB-0517             
1 54135U 22138Y   25285.88810771 -.00000032  00000+0 -11269-3 0  9994
2 54135  87.9282 354.1508 0001652  92.5454 267.5868 13.19727965144219
ONEWEB-0518             
1 54136U 22138Z   25285.90706338  .00000098  00000+0  21365-3 0  9999
2 54136  87.9261 354.1796 0001776 104.4821 255.6509 13.19723358144216
ONEWEB-0519             
1 54137U 22138AA  25285.47743155  .00000030  00000+0  42390-4 0  9998
2 54137  87.9277 354.2237 0001660  95.0925 265.0398 13.19728548144168
